{
  "type": "FeatureCollection",
  "features": [
    {
      "type": "Feature",
      "properties": {
        "name": "Farm Reference Point",
        "location": "Kanyidoto East, Homa Bay County, Kenya",
        "farm_size_acres": 3.5
      },
      "geometry": {
        "type": "Point",
        "coordinates": [34.3630179, -0.7482554]
      }
    },
    {
      "type": "Feature",
      "properties": {
        "name": "Three Bedroom House",
        "status": "Existing",
        "notes": "House requires finishing"
      },
      "geometry": {
        "type": "Point",
        "coordinates": [34.3629351, -0.7480046]
      }
    }
  ]
}
{
  "type": "Feature",
  "properties": {
    "name": "Access Road",
    "status": "Existing",
    "notes": "Main access route to the farm"
  },
  "geometry": {
    "type": "Point",
    "coordinates": [34.3629857, -0.7485923]
  }
}
